stk.v.11.0
WrittenBy    formation-sat-exporter

BEGIN Ephemeris
    NumberOfEphemerisPoints 181
    ScenarioEpoch 21 Mar 2026 07:38:40.000000000
    InterpolationMethod     Lagrange
    InterpolationOrder      7
    CentralBody             Earth
    CoordinateSystem        TEME
    DistanceUnit            Kilometers

    BEGIN EphemerisTimePosVel
        62.000000000  5.54528323918604e+03 -1.40580336820573e+03  3.85458905175544e+03 -4.36490947144712e+00 -1.59094336998649e-01  6.22141651308886e+00
        63.000000000  5.54091496293290e+03 -1.40596160794790e+03  3.86080812800790e+03 -4.37164038252737e+00 -1.57385051266640e-01  6.21673221578845e+00
        64.000000000  5.53653995842098e+03 -1.40611813830826e+03  3.86702251618701e+03 -4.37836598492693e+00 -1.55675574414548e-01  6.21204036922637e+00
        65.000000000  5.53215823096304e+03 -1.40627295909673e+03  3.87323220874635e+03 -4.38508627047623e+00 -1.53965908518876e-01  6.20734097910090e+00
        66.000000000  5.52776978588003e+03 -1.40642607012530e+03  3.87943719814522e+03 -4.39180123101547e+00 -1.52256055655191e-01  6.20263405111851e+00
        67.000000000  5.52337462850101e+03 -1.40657747120804e+03  3.88563747684859e+03 -4.39851085839141e+00 -1.50546017899760e-01  6.19791959099448e+00
        68.000000000  5.51897276416325e+03 -1.40672716216110e+03  3.89183303732720e+03 -4.40521514445357e+00 -1.48835797329783e-01  6.19319760445505e+00
        69.000000000  5.51456419821211e+03 -1.40687514280270e+03  3.89802387205750e+03 -4.41191408106359e+00 -1.47125396021642e-01  6.18846809723391e+00
        70.000000000  5.51014893600112e+03 -1.40702141295314e+03  3.90420997352167e+03 -4.41860766008543e+00 -1.45414816052537e-01  6.18373107507429e+00
        71.000000000  5.50572698289194e+03 -1.40716597243480e+03  3.91039133420765e+03 -4.42529587339051e+00 -1.43704059499549e-01  6.17898654372781e+00
        72.000000000  5.50129834425434e+03 -1.40730882107214e+03  3.91656794660913e+03 -4.43197871285724e+00 -1.41993128440110e-01  6.17423450895585e+00
        73.000000000  5.49686302546622e+03 -1.40744995869168e+03  3.92273980322556e+03 -4.43865617037006e+00 -1.40282024951768e-01  6.16947497653030e+00
        74.000000000  5.49242103191360e+03 -1.40758938512204e+03  3.92890689656219e+03 -4.44532823782042e+00 -1.38570751112769e-01  6.16470795223070e+00
        75.000000000  5.48797236899058e+03 -1.40772710019391e+03  3.93506921913002e+03 -4.45199490710627e+00 -1.36859309001360e-01  6.15993344184500e+00
        76.000000000  5.48351704209938e+03 -1.40786310374005e+03  3.94122676344588e+03 -4.45865617013304e+00 -1.35147700694855e-01  6.15515145117138e+00
        77.000000000  5.47905505665031e+03 -1.40799739559530e+03  3.94737952203237e+03 -4.46531201880938e+00 -1.33435928272549e-01  6.15036198601779e+00
        78.000000000  5.47458641806177e+03 -1.40812997559659e+03  3.95352748741791e+03 -4.47196244505374e+00 -1.31723993813037e-01  6.14556505219894e+00
        79.000000000  5.47011113176021e+03 -1.40826084358293e+03  3.95967065213677e+03 -4.47860744079109e+00 -1.30011899394798e-01  6.14076065554004e+00
        80.000000000  5.46562920318018e+03 -1.40838999939538e+03  3.96580900872899e+03 -4.48524699795200e+00 -1.28299647097476e-01  6.13594880187675e+00
        81.000000000  5.46114063776430e+03 -1.40851744287712e+03  3.97194254974052e+03 -4.49188110847212e+00 -1.26587239000131e-01  6.13112949705077e+00
        82.000000000  5.45664544096324e+03 -1.40864317387338e+03  3.97807126772310e+03 -4.49850976429600e+00 -1.24874677181942e-01  6.12630274691456e+00
        83.000000000  5.45214361823571e+03 -1.40876719223148e+03  3.98419515523435e+03 -4.50513295737561e+00 -1.23161963722669e-01  6.12146855733055e+00
        84.000000000  5.44763517504849e+03 -1.40888949780083e+03  3.99031420483776e+03 -4.51175067966664e+00 -1.21449100702303e-01  6.11662693416816e+00
        85.000000000  5.44312011687638e+03 -1.40901009043289e+03  3.99642840910268e+03 -4.51836292313412e+00 -1.19736090200604e-01  6.11177788330731e+00
        86.000000000  5.43859844920222e+03 -1.40912896998123e+03  4.00253776060437e+03 -4.52496967974631e+00 -1.18022934298147e-01  6.10692141063558e+00
        87.000000000  5.43407017751688e+03 -1.40924613630148e+03  4.00864225192396e+03 -4.53157094148220e+00 -1.16309635075158e-01  6.10205752205127e+00
        88.000000000  5.42953530731926e+03 -1.40936158925138e+03  4.01474187564847e+03 -4.53816670032544e+00 -1.14596194611862e-01  6.09718622346153e+00
        89.000000000  5.42499384411623e+03 -1.40947532869071e+03  4.02083662437088e+03 -4.54475694826571e+00 -1.12882614989067e-01  6.09230752077978e+00
        90.000000000  5.42044579342272e+03 -1.40958735448136e+03  4.02692649069003e+03 -4.55134167730110e+00 -1.11168898288161e-01  6.08742141993181e+00
        91.000000000  5.41589116076163e+03 -1.40969766648729e+03  4.03301146721074e+03 -4.55792087943480e+00 -1.09455046589603e-01  6.08252792685060e+00
        92.000000000  5.41132995166385e+03 -1.40980626457454e+03  4.03909154654373e+03 -4.56449454667699e+00 -1.07741061974666e-01  6.07762704747822e+00
        93.000000000  5.40676217166828e+03 -1.40991314861123e+03  4.04516672130570e+03 -4.57106267104577e+00 -1.06026946524973e-01  6.07271878776723e+00
        94.000000000  5.40218782632176e+03 -1.41001831846759e+03  4.05123698411927e+03 -4.57762524456531e+00 -1.04312702321913e-01  6.06780315367738e+00
        95.000000000  5.39760692117915e+03 -1.41012177401588e+03  4.05730232761305e+03 -4.58418225926580e+00 -1.02598331447225e-01  6.06288015117729e+00
        96.000000000  5.39301946180323e+03 -1.41022351513048e+03  4.06336274442162e+03 -4.59073370718583e+00 -1.00883835982648e-01  6.05794978624606e+00
        97.000000000  5.38842545376477e+03 -1.41032354168784e+03  4.06941822718555e+03 -4.59727958036866e+00 -9.91692180102691e-02  6.05301206487021e+00
        98.000000000  5.38382490264249e+03 -1.41042185356650e+03  4.07546876855136e+03 -4.60381987086358e+00 -9.74544796121772e-02  6.04806699304539e+00
        99.000000000  5.37921781402305e+03 -1.41051845064707e+03  4.08151436117164e+03 -4.61035457073152e+00 -9.57396228706930e-02  6.04311457677838e+00
        100.000000000  5.37460419350103e+03 -1.41061333281224e+03  4.08755499770492e+03 -4.61688367203670e+00 -9.40246498681372e-02  6.03815482208156e+00
        101.000000000  5.36998404667898e+03 -1.41070649994680e+03  4.09359067081580e+03 -4.62340716684796e+00 -9.23095626872964e-02  6.03318773497851e+00
        102.000000000  5.36535737916733e+03 -1.41079795193762e+03  4.09962137317488e+03 -4.62992504724674e+00 -9.05943634107244e-02  6.02821332150092e+00
        103.000000000  5.36072419658448e+03 -1.41088768867363e+03  4.10564709745880e+03 -4.63643730531679e+00 -8.88790541212074e-02  6.02323158768867e+00
        104.000000000  5.35608450455670e+03 -1.41097571004586e+03  4.11166783635026e+03 -4.64294393314933e+00 -8.71636369018816e-02  6.01824253959278e+00
        105.000000000  5.35143830871818e+03 -1.41106201594743e+03  4.11768358253799e+03 -4.64944492284302e+00 -8.54481138358824e-02  6.01324618327012e+00
        106.000000000  5.34678561471101e+03 -1.41114660627353e+03  4.12369432871680e+03 -4.65594026650488e+00 -8.37324870059965e-02  6.00824252478918e+00
        107.000000000  5.34212642818517e+03 -1.41122948092144e+03  4.12970006758756e+03 -4.66242995624663e+00 -8.20167584962910e-02  6.00323157022567e+00
        108.000000000  5.33746075479852e+03 -1.41131063979052e+03  4.13570079185725e+03 -4.66891398418602e+00 -8.03009303897852e-02  5.99821332566394e+00
        109.000000000  5.33278860021680e+03 -1.41139008278222e+03  4.14169649423889e+03 -4.67539234245103e+00 -7.85850047700806e-02  5.99318779719970e+00
        110.000000000  5.32810997011362e+03 -1.41146780980006e+03  4.14768716745165e+03 -4.68186502317386e+00 -7.68689837212441e-02  5.98815499093384e+00
        111.000000000  5.32342487017045e+03 -1.41154382074966e+03  4.15367280422076e+03 -4.68833201849600e+00 -7.51528693265282e-02  5.98311491297837e+00
        112.000000000  5.31873330607663e+03 -1.41161811553872e+03  4.15965339727760e+03 -4.69479332056222e+00 -7.34366636706982e-02  5.97806756945443e+00
        113.000000000  5.31403528352933e+03 -1.41169069407700e+03  4.16562893935967e+03 -4.70124892152613e+00 -7.17203688373556e-02  5.97301296649105e+00
        114.000000000  5.30933080823358e+03 -1.41176155627639e+03  4.17159942321059e+03 -4.70769881355111e+00 -7.00039869104512e-02  5.96795111022564e+00
        115.000000000  5.30461988590223e+03 -1.41183070205083e+03  4.17756484158012e+03 -4.71414298880193e+00 -6.82875199745177e-02  5.96288200680423e+00
        116.000000000  5.29990252225597e+03 -1.41189813131634e+03  4.18352518722419e+03 -4.72058143945411e+00 -6.65709701139713e-02  5.95780566238472e+00
        117.000000000  5.29517872302332e+03 -1.41196384399105e+03  4.18948045290489e+03 -4.72701415768964e+00 -6.48543394134613e-02  5.95272208312992e+00
        118.000000000  5.29044849394059e+03 -1.41202783999517e+03  4.19543063139045e+03 -4.73344113569660e+00 -6.31376299571712e-02  5.94763127521379e+00
        119.000000000  5.28571184075193e+03 -1.41209011925097e+03  4.20137571545532e+03 -4.73986236567004e+00 -6.14208438300993e-02  5.94253324481892e+00
        120.000000000  5.28096876920925e+03 -1.41215068168283e+03  4.20731569788009e+03 -4.74627783981245e+00 -5.97039831168950e-02  5.93742799813440e+00
        121.000000000  5.27621928507230e+03 -1.41220952721720e+03  4.21325057145159e+03 -4.75268755033426e+00 -5.79870499023236e-02  5.93231554136099e+00
        122.000000000  5.27146339410858e+03 -1.41226665578263e+03  4.21918032896281e+03 -4.75909148945054e+00 -5.62700462716166e-02  5.92719588070549e+00
        123.000000000  5.26670110209340e+03 -1.41232206730974e+03  4.22510496321300e+03 -4.76548964938521e+00 -5.45529743095394e-02  5.92206902238727e+00
    END EphemerisTimePosVel
END Ephemeris
